NORAD_CAT_ID,OBJECT_NAME,OBJECT_TYPE,EPOCH,MEAN_MOTION,ECCENTRICITY,INCLINATION,RA_OF_ASC_NODE,ARG_OF_PERICENTER,MEAN_ANOMALY,BSTAR,MEAN_MOTION_DOT,MEAN_MOTION_DDOT,TLE_LINE0,TLE_LINE1,TLE_LINE2,SEMIMAJOR_AXIS,PERIOD,APOGEE,PERIGEE,DECAYED
52639.0,STARLINK-3968,PAYLOAD,2022-12-15 20:42:50,15.08835515,0.000358,53.2178,155.57,52.3866,307.7451,3.6785e-05,2.97e-06,0.0,0 STARLINK-3968,1 52639U 22052AT  22349.86308461  .00000297  00000-0  36785-4 0  9993,2 52639  53.2178 155.5700 0003580  52.3866 307.7451 15.08835515 33826,6917.894,95.438,542.236,537.2819999999998,0.0
52639.0,STARLINK-3968,PAYLOAD,2022-12-16 11:01:18,15.08840764,0.0003581,53.218,152.8935,53.5846,306.5476,5.5673e-05,5.97e-06,0.0,0 STARLINK-3968,1 52639U 22052AT  22350.45924162  .00000597  00000-0  55673-4 0  9992,2 52639  53.2180 152.8935 0003581  53.5846 306.5476 15.08840764 33917,6917.878000000002,95.438,542.22,537.266,0.0
52639.0,STARLINK-3968,PAYLOAD,2022-12-16 17:22:50,15.08845694,0.0003706,53.2178,151.7049,48.7743,311.3568,5.3851e-05,5.68e-06,0.0,0 STARLINK-3968,1 52639U 22052AT  22350.72419811  .00000568  00000-0  53851-4 0  9996,2 52639  53.2178 151.7049 0003706  48.7743 311.3568 15.08845694 33529,6917.863,95.437,542.2919999999998,537.164,0.0
52639.0,STARLINK-3968,PAYLOAD,2022-12-16 20:33:36,15.08847687,0.0003621,53.2176,151.1098,53.6544,306.4782,6.9845e-05,8.23e-06,0.0,0 STARLINK-3968,1 52639U 22052AT  22350.85667577  .00000823  00000-0  69845-4 0  9998,2 52639  53.2176 151.1098 0003621  53.6544 306.4782 15.08847687 33971,6917.857,95.437,542.227,537.217,0.0
52639.0,STARLINK-3968,PAYLOAD,2022-12-17 10:52:05,15.08837227,0.0003488,53.2187,148.4332,54.9444,305.1875,-3.2942e-05,-8.13e-06,0.0,0 STARLINK-3968,1 52639U 22052AT  22351.45284475 -.00000813  00000-0 -32942-4 0  9996,2 52639  53.2187 148.4332 0003488  54.9444 305.1875 15.08837227 34066,6917.889,95.438,542.1669999999998,537.341,0.0
52639.0,STARLINK-3968,PAYLOAD,2022-12-17 17:13:38,15.08837918,0.000358,53.2185,147.2451,52.9212,307.2107,3.1615e-05,2.14e-06,0.0,0 STARLINK-3968,1 52639U 22052AT  22351.71780323  .00000214  00000-0  31615-4 0  9997,2 52639  53.2185 147.2451 0003580  52.9212 307.2107 15.08837918 34100,6917.887,95.438,542.2280000000002,537.275,0.0
52639.0,STARLINK-3968,PAYLOAD,2022-12-18 12:18:15,15.08838495,0.0003685,53.2183,143.6772,54.942,305.1917,2.1415e-05,5.2e-07,0.0,0 STARLINK-3968,1 52639U 22052AT  22352.51268497  .00000052  00000-0  21415-4 0  9996,2 52639  53.2183 143.6772 0003685  54.9420 305.1917 15.08838495 34223,6917.885,95.438,542.299,537.201,0.0
52639.0,STARLINK-3968,PAYLOAD,2022-12-18 17:04:25,15.08834373,0.0003621,53.2186,142.7848,55.5636,304.5698,-1.7116e-05,-5.61e-06,0.0,0 STARLINK-3968,1 52639U 22052AT  22352.71140907 -.00000561  00000-0 -17116-4 0  9993,2 52639  53.2186 142.7848 0003621  55.5636 304.5698 15.08834373 33821,6917.898,95.438,542.268,537.258,0.0
52639.0,STARLINK-3968,PAYLOAD,2022-12-18 21:50:35,15.08835752,0.0003632,53.2182,141.8923,55.4049,304.7285,-2.5595e-05,-6.96e-06,0.0,0 STARLINK-3968,1 52639U 22052AT  22352.91012890 -.00000696  00000-0 -25595-4 0  9993,2 52639  53.2182 141.8923 0003632  55.4049 304.7285 15.08835752 34287,6917.893,95.438,542.271,537.246,0.0
52639.0,STARLINK-3968,PAYLOAD,2022-12-19 16:55:11,15.08846704,0.0003572,53.218,138.32399999999998,55.5738,304.5591,0.00019588,2.831e-05,0.0,0 STARLINK-3968,1 52639U 22052AT  22353.70499842  .00002831  00000-0  19588-3 0  9992,2 52639  53.2180 138.3240 0003572  55.5738 304.5591 15.08846704 33979,6917.86,95.437,542.196,537.254,0.0
52639.0,STARLINK-3968,PAYLOAD,2022-12-19 20:05:58,15.08843436,0.0003721,53.2182,137.7289,56.3999,303.7348,0.00010366,1.361e-05,0.0,0 STARLINK-3968,1 52639U 22052AT  22353.83748232  .00001361  00000-0  10366-3 0  9998,2 52639  53.2182 137.7289 0003721  56.3999 303.7348 15.08843436 34422,6917.87,95.437,542.309,537.161,0.0
52639.0,STARLINK-3968,PAYLOAD,2022-12-20 02:27:30,15.08844295,0.0002738,53.2185,136.5418,51.8609,308.263,8.837200000000001e-05,1.118e-05,0.0,0 STARLINK-3968,1 52639U 22052AT  22354.10243758  .00001118  00000-0  88372-4 0  9995,2 52639  53.2185 136.5418 0002738  51.8609 308.2630 15.08844295 34036,6917.8669999999975,95.437,541.626,537.8380000000002,0.0
52639.0,STARLINK-3968,PAYLOAD,2022-12-20 11:59:49,15.0884392,0.0003389,53.2184,134.7554,55.0736,305.0574,0.00019072,2.748e-05,0.0,0 STARLINK-3968,1 52639U 22052AT  22354.49987796  .00002748  00000-0  19072-3 0  9994,2 52639  53.2184 134.7554 0003389  55.0736 305.0574 15.08843920 34526,6917.868,95.437,542.078,537.389,0.0
52639.0,STARLINK-3968,PAYLOAD,2022-12-20 19:56:45,15.08840523,0.0003516,53.2169,133.2684,54.5975,305.5345,5.7415e-05,6.25e-06,0.0,0 STARLINK-3968,1 52639U 22052AT  22354.83107900  .00000625  00000-0  57415-4 0  9999,2 52639  53.2169 133.2684 0003516  54.5975 305.5345 15.08840523 34570,6917.879,95.438,542.1759999999998,537.311,0.0
52639.0,STARLINK-3968,PAYLOAD,2022-12-21 18:12:09,15.08841708,0.0003579,53.2171,129.1047,54.3188,305.8137,-1.7836e-05,-5.73e-06,0.0,0 STARLINK-3968,1 52639U 22052AT  22355.75843899 -.00000573  00000-0 -17836-4 0  9992,2 52639  53.2171 129.1047 0003579  54.3188 305.8137 15.08841708 34289,6917.875,95.437,542.216,537.264,0.0
52639.0,STARLINK-3968,PAYLOAD,2022-12-22 11:41:23,15.08836481,0.0003458,53.2169,125.8339,55.6408,304.4911,-2.0279e-05,-6.12e-06,0.0,0 STARLINK-3968,1 52639U 22052AT  22356.48708234 -.00000612  00000-0 -20279-4 0  9995,2 52639  53.2169 125.8339 0003458  55.6408 304.4911 15.08836481 34825,6917.891,95.438,542.148,537.364,0.0
52639.0,STARLINK-3968,PAYLOAD,2022-12-22 19:38:19,15.08844061,0.0003401,53.2174,124.348,54.4631,305.6677,0.0001135,1.518e-05,0.0,0 STARLINK-3968,1 52639U 22052AT  22356.81827997  .00001518  00000-0  11350-3 0  9993,2 52639  53.2174 124.3480 0003401  54.4631 305.6677 15.08844061 34875,6917.868,95.437,542.086,537.38,0.0
52639.0,STARLINK-3968,PAYLOAD,2022-12-23 01:59:52,15.08839605,0.0003392,53.2176,123.1584,54.8617,305.2693,0.00014971,2.095e-05,0.0,0 STARLINK-3968,1 52639U 22052AT  22357.08324288  .00002095  00000-0  14971-3 0  9991,2 52639  53.2176 123.1584 0003392  54.8617 305.2693 15.08839605 34485,6917.882,95.438,542.0930000000002,537.4,0.0
52639.0,STARLINK-3968,PAYLOAD,2022-12-23 14:42:57,15.08842787,0.0003296,53.2175,120.7798,55.2412,304.889,0.00015696,2.211e-05,0.0,0 STARLINK-3968,1 52639U 22052AT  22357.61316272  .00002211  00000-0  15696-3 0  9999,2 52639  53.2175 120.7798 0003296  55.2412 304.8890 15.08842787 34990,6917.871999999999,95.437,542.0169999999998,537.457,0.0
52639.0,STARLINK-3968,PAYLOAD,2022-12-23 19:29:06,15.088365,0.0003123999999999,53.2167,119.8884,53.9692,306.1589,5.9953e-05,6.66e-06,0.0,0 STARLINK-3968,1 52639U 22052AT  22357.81188622  .00000666  00000-0  59953-4 0  9994,2 52639  53.2167 119.8884 0003124  53.9692 306.1589 15.08836500 35022,6917.891,95.438,541.9169999999998,537.595,0.0
52639.0,STARLINK-3968,PAYLOAD,2022-12-23 21:04:30,15.08835445,0.0003186,53.2169,119.5911,53.3031,306.8253,4.3588e-05,4.05e-06,0.0,0 STARLINK-3968,1 52639U 22052AT  22357.87812748  .00000405  00000-0  43588-4 0  9991,2 52639  53.2169 119.5911 0003186  53.3031 306.8253 15.08835445 34606,6917.894,95.438,541.9630000000002,537.555,0.0
52639.0,STARLINK-3968,PAYLOAD,2022-12-24 11:22:58,15.08844611,0.00032,53.2175,116.9141,54.2987,305.8302,0.00024579,3.626e-05,0.0,0 STARLINK-3968,1 52639U 22052AT  22358.47428453  .00003626  00000-0  24579-3 0  9990,2 52639  53.2175 116.9141 0003200  54.2987 305.8302 15.08844611 35123,6917.866,95.437,541.945,537.518,0.0
52639.0,STARLINK-3968,PAYLOAD,2022-12-24 19:19:54,15.08839889,0.0003116,53.2175,115.4279,52.2287,307.8987,0.00011001,1.463e-05,0.0,0 STARLINK-3968,1 52639U 22052AT  22358.80548722  .00001463  00000-0  11001-3 0  9992,2 52639  53.2175 115.4279 0003116  52.2287 307.8987 15.08839889 35173,6917.880999999999,95.438,541.901,537.59,0.0
52639.0,STARLINK-3968,PAYLOAD,2022-12-25 08:02:59,15.08838967,0.0003348,53.2174,113.0497,52.2377,307.8918,4.6208e-05,4.47e-06,0.0,0 STARLINK-3968,1 52639U 22052AT  22359.33540850  .00000447  00000-0  46208-4 0  9994,2 52639  53.2174 113.0497 0003348  52.2377 307.8918 15.08838967 34826,6917.884,95.438,542.065,537.432,0.0
52639.0,STARLINK-3968,PAYLOAD,2022-12-25 11:13:45,15.08835999,0.0003187,53.2175,112.4542,53.6954,306.4332,7.8519e-05,9.61e-06,0.0,0 STARLINK-3968,1 52639U 22052AT  22359.46789103  .00000961  00000-0  78519-4 0  9995,2 52639  53.2175 112.4542 0003187  53.6954 306.4332 15.08835999 35275,6917.893,95.438,541.962,537.553,0.0
52639.0,STARLINK-3968,PAYLOAD,2022-12-25 17:35:18,15.08838228,0.0003143999999999,53.2173,111.265,52.0424,308.0851,5.0629e-05,5.17e-06,0.0,0 STARLINK-3968,1 52639U 22052AT  22359.73284934  .00000517  00000-0  50629-4 0  9996,2 52639  53.2173 111.2650 0003144  52.0424 308.0851 15.08838228 35315,6917.886,95.438,541.9259999999998,537.576,0.0
52639.0,STARLINK-3968,PAYLOAD,2022-12-26 07:53:46,15.08835034,0.0003291,53.2172,108.5888,53.4016,306.7278,7.496899999999999e-05,9.04e-06,0.0,0 STARLINK-3968,1 52639U 22052AT  22360.32901466  .00000904  00000-0  74969-4 0  9992,2 52639  53.2172 108.5888 0003291  53.4016 306.7278 15.08835034 34972,6917.896,95.438,542.0369999999998,537.484,0.0
52639.0,STARLINK-3968,PAYLOAD,2022-12-26 17:26:05,15.08845744,0.0003222,53.2181,106.8046,53.8719,306.2571,7.0245e-06,-1.77e-06,0.0,0 STARLINK-3968,1 52639U 22052AT  22360.72644957 -.00000177  00000-0  70245-5 0  9992,2 52639  53.2181 106.8046 0003222  53.8719 306.2571 15.08845744 35035,6917.863,95.437,541.957,537.499,0.0
52639.0,STARLINK-3968,PAYLOAD,2022-12-26 23:47:38,15.08834633,0.0003114,53.2181,105.6151,53.4997,306.6282,0.00010141,1.325e-05,0.0,0 STARLINK-3968,1 52639U 22052AT  22360.99141608  .00001325  00000-0  10141-3 0  9998,2 52639  53.2181 105.6151 0003114  53.4997 306.6282 15.08834633 35075,6917.897,95.438,541.9159999999998,537.6080000000002,0.0
